[{"OBJECT_NAME":"STARLINK-4474","OBJECT_ID":"2022-101W","EPOCH":"2026-03-09T10:15:08.317440","MEAN_MOTION":15.08853734,"ECCENTRICITY":0.00019503,"INCLINATION":53.2185,"RA_OF_ASC_NODE":65.3038,"ARG_OF_PERICENTER":40.5655,"MEAN_ANOMALY":319.5483,"EPHEMERIS_TYPE":0,"CLASSIFICATION_TYPE":"U","NORAD_CAT_ID":53547,"ELEMENT_SET_NO":999,"REV_AT_EPOCH":19693,"BSTAR":0.00014085464,"MEAN_MOTION_DOT":1.955e-5,"MEAN_MOTION_DDOT":0},{"OBJECT_NAME":"CZ-6A DEB","OBJECT_ID":"2024-140PS","EPOCH":"2026-03-09T14:06:57.647808","MEAN_MOTION":14.7419151,"ECCENTRICITY":0.0174551,"INCLINATION":88.9937,"RA_OF_ASC_NODE":280.0508,"ARG_OF_PERICENTER":181.2195,"MEAN_ANOMALY":178.8626,"EPHEMERIS_TYPE":0,"CLASSIFICATION_TYPE":"U","NORAD_CAT_ID":61124,"ELEMENT_SET_NO":999,"REV_AT_EPOCH":8308,"BSTAR":0.00056687,"MEAN_MOTION_DOT":4.809e-5,"MEAN_MOTION_DDOT":0}]
